STARLINK-1710_new
1 16330C 20062F   21326.14030622  .00008849  00000-0  59308-3 0  3269
2 16330  53.0510 198.1120 0001904  73.1290 140.5603 15.06378797    13
STARLINK-1710_old
1 26330C 20062F   21325.14356857 -.00001538  00000-0 -10303-3 0  3250
2 26330  53.0515 202.5867 0001924  73.1641 132.1700 15.06406693    10
